#aV2011 11  4  0  0   .00000000      96 DD+AD WGS84 FIT  NGA
## 1660 432000.00000000   900.00000000 55869  .0000000000000
+   31     1  2  3  4  5  6  7  8  9 10 11 12 13 14 15 16 17
+         18 19 20 21 22 23 25 26 27 28 29 30 31 32  0  0  0
+          0  0  0  0  0  0  0  0  0  0  0  0  0  0  0  0  0
+          0  0  0  0  0  0  0  0  0  0  0  0  0  0  0  0  0
+          0  0  0  0  0  0  0  0  0  0  0  0  0  0  0  0  0
++         0  0  0  0  0  0  0  0  0  0  0  0  0  0  0  0  0
++         0  0  0  0  0  0  0  0  0  0  0  0  0  0  0  0  0
++         0  0  0  0  0  0  0  0  0  0  0  0  0  0  0  0  0
++         0  0  0  0  0  0  0  0  0  0  0  0  0  0  0  0  0
++         0  0  0  0  0  0  0  0  0  0  0  0  0  0  0  0  0
%c cc cc ccc ccc cccc cccc cccc cccc ccccc ccccc ccccc ccccc
%c cc cc ccc ccc cccc cccc cccc cccc ccccc ccccc ccccc ccccc
%f  0.0000000  0.000000000  0.00000000000  0.000000000000000
%f  0.0000000  0.000000000  0.00000000000  0.000000000000000
%i    0    0    0    0      0      0      0      0         0
%i    0    0    0    0      0      0      0      0         0
/*      NGA, ST. LOUIS,MO.                                  
/*   EPHEMERIS COMPUTED FROM  3 DAYS OF DATA                
/* CCCCCCCCCCCCCCCCCCCCCCCCCCCCCCCCCCCCCCCCCCCCCCCCCCCCCCCCC
/* CCCCCCCCCCCCCCCCCCCCCCCCCCCCCCCCCCCCCCCCCCCCCCCCCCCCCCCCC
*  2011 11  4  2 45   .00000000                                                 
P  1 -13297.348437  17137.310857  15310.444876     72.675873                    
V  1    781.481513 -19559.895930  22553.938547       .236980                    
P  2  14401.262969   7764.641913 -20916.258650    363.942170                    
V  2  -4099.589867  26431.735235   6467.860070       .018250                    
P  3 -24122.541838  -9855.648490   5429.793645    790.281203                    
V  3  -4547.725216  -6847.040961 -29835.838569       .051546                    
P  4   8173.937396  20210.317667 -15172.096287    280.314740                    
V  4  -5501.458091  18436.808555  22268.875073       .113101                    
P  5  23909.190126   -460.818073 -11706.831694   -240.587402                    
V  5 -12874.341999   7733.235734 -26511.651813      -.050283                    
P  6 -22798.384974 -13618.052568   2906.874480    -37.725070                    
V  6   -934.463421  -4747.963779 -30753.764461       .062544                    
P  7  -6132.444519  25549.330359  -2813.149389     35.382136                    
V  7  -1925.654820  -3977.718436 -31971.774674       .021590                    
P  8   -830.864084  25008.122917   8026.184764       .031250                    
V  8  -4377.621960   9472.339134 -30710.425819      -.000301                    
P  9  13665.158422 -13836.340006  17555.328111    116.076454                    
V  9  -1792.076339  23302.433243  19145.841154       .024129                    
P 10   9488.559472  12925.697658 -21446.197718    -18.068344                    
V 10 -24949.536173   9507.524727  -4978.514573      -.010321                    
P 11 -14341.629988  10986.246492  19022.381397   -200.772200                    
V 11  -4859.564903 -24950.946810  10887.508017      -.034462                    
P 12  23165.800556 -11906.221203  -4696.071824     32.576166                    
V 12   6446.849890    168.269447  31487.991849       .023245                    
P 13  -4275.170957  15372.813933 -21352.641479    243.267640                    
V 13 -19757.996198 -18025.864692  -9158.494290      -.019434                    
P 14 -13570.894330 -20910.338025   9555.525122    179.708259                    
V 14   9974.528230   6574.283125  28952.980100       .016258                    
P 15  19478.119030  -1440.454949  18091.730789   -100.414577                    
V 15  17180.440679  15270.705567 -17104.360920       .011865                    
P 16 -24033.100834     86.081559 -11610.890063   -206.998370                    
V 16  13257.766045  -6429.094098 -27167.811415      -.020341                    
P 17  13291.263320  20791.110709  10281.612116    167.476473                    
V 17 -11166.640159  -6577.618987  27902.283773      -.018083                    
P 18   7712.578390 -17603.973176  18520.435475    165.381473                    
V 18  22289.080564  -6243.311043 -15868.329753       .018353                    
P 19 -20381.252949  -2993.410675  16934.116940   -201.222086                    
V 19 -14418.789332 -15928.994246 -19771.896044      -.039728                    
P 20 -22004.619822  13904.758949  -5234.397629     55.486058                    
V 20  -7424.719911   -728.830711  30198.393582       .006728                    
P 21   2952.053421 -26037.365739   1612.468626   -182.219873                    
V 21   4437.222950   -885.489786 -31394.542466      -.024672                    
P 22  -7515.079823 -14199.216957  21335.133711    143.569081                    
V 22  25033.354692  -9562.529163   2363.871668      -.004149                    
P 23 -13227.597910   8463.819155 -21437.920974    262.342140                    
V 23 -20834.870983 -17533.175707   5571.252798      -.032010                    
P 25  15553.976098 -16554.031391 -13764.871830     26.331581                    
V 25  16942.484374  -4620.355256  24773.836074       .014923                    
P 26  21758.996348  11554.694500   9817.100012   -213.757876                    
V 26   8448.851717  10267.843381 -28675.044940      -.133286                    
P 27  15123.892690  -6265.144385  21475.002625    322.016484                    
V 27  -2111.643264  25740.708788   9664.230742       .040030                    
P 28   3441.531313  14766.320629  22331.008806     81.204142                    
V 28 -25671.120131   8494.111965  -1947.719212       .033225                    
P 29   4420.632242 -15561.759767 -21009.287114    254.294211                    
V 29  20703.542315  17049.348736  -8209.458502       .034436                    
P 30  -8543.000791 -12976.347946 -21943.838802     56.483812                    
V 30  23896.027027 -12437.865697  -1989.975361      -.071682                    
P 31  -9045.323187 -17418.505959 -17587.954528    164.593109                    
V 31   5212.251897 -22217.627067  19314.949088       .052080                    
P 32 -25574.921613   5860.379875   2229.139693   -356.142168                    
V 32   1501.941414  -3993.816084  31722.900096      -.060113                    
EOF
